NORAD_CAT_ID,OBJECT_NAME,OBJECT_TYPE,EPOCH,MEAN_MOTION,ECCENTRICITY,INCLINATION,RA_OF_ASC_NODE,ARG_OF_PERICENTER,MEAN_ANOMALY,BSTAR,MEAN_MOTION_DOT,MEAN_MOTION_DDOT,TLE_LINE0,TLE_LINE1,TLE_LINE2,SEMIMAJOR_AXIS,PERIOD,APOGEE,PERIGEE,DECAYED
49728.0,STARLINK-3240,PAYLOAD,2023-04-19 07:07:32,15.08855379,0.0001431,53.2172,216.9626,67.4398,292.6746,0.00050174,7.71e-05,0.0,0 STARLINK-3240,1 49728U 21115E   23109.29690230  .00007710  00000-0  50174-3 0  9991,2 49728  53.2172 216.9626 0001431  67.4398 292.6746 15.08855379 76066,6917.833,95.437,540.688,538.708,0.0
49728.0,STARLINK-3240,PAYLOAD,2023-04-19 15:04:28,15.08851953,0.0001783,53.2157,215.4742,81.2919,278.8275,0.00046791,7.169e-05,0.0,0 STARLINK-3240,1 49728U 21115E   23109.62810383  .00007169  00000-0  46791-3 0  9999,2 49728  53.2157 215.4742 0001783  81.2919 278.8275 15.08851953 77221,6917.844,95.437,540.942,538.475,0.0
49728.0,STARLINK-3240,PAYLOAD,2023-04-20 13:19:51,15.08842778,0.0001481,53.2181,211.3067,124.9699,235.1433,0.00022583,3.308e-05,0.0,0 STARLINK-3240,1 49728U 21115E   23110.55546253  .00003308  00000-0  22583-3 0  9999,2 49728  53.2181 211.3067 0001481 124.9699 235.1433 15.08842778 77360,6917.872,95.437,540.761,538.712,0.0
49728.0,STARLINK-3240,PAYLOAD,2023-04-21 13:10:39,15.08839043,0.0001286,53.2164,206.8512,93.0419,267.0721,0.0001314,1.804e-05,0.0,0 STARLINK-3240,1 49728U 21115E   23111.54906789  .00001804  00000-0  13140-3 0  9991,2 49728  53.2164 206.8512 0001286  93.0419 267.0721 15.08839043 76403,6917.883,95.438,540.638,538.859,0.0
49728.0,STARLINK-3240,PAYLOAD,2023-04-21 22:42:58,15.08843657,0.0001105,53.2154,205.0684,95.5283,264.5835,0.00019311,2.787e-05,0.0,0 STARLINK-3240,1 49728U 21115E   23111.94650520  .00002787  00000-0  19311-3 0  9991,2 49728  53.2154 205.0684 0001105  95.5283 264.5835 15.08843657 76469,6917.869,95.437,540.499,538.97,0.0
49728.0,STARLINK-3240,PAYLOAD,2023-04-22 16:12:12,15.08851876,0.0001438,53.2147,201.7982,87.2765,272.8392,0.00029893,4.474e-05,0.0,0 STARLINK-3240,1 49728U 21115E   23112.67514341  .00004474  00000-0  29893-3 0  9993,2 49728  53.2147 201.7982 0001438  87.2765 272.8392 15.08851876 77684,6917.844,95.437,540.704,538.714,0.0
49728.0,STARLINK-3240,PAYLOAD,2023-04-23 04:55:18,15.08833553,0.000151,53.2146,199.4171,80.3614,279.7549,-4.1009e-05,-9.4e-06,0.0,0 STARLINK-3240,1 49728U 21115E   23113.20507324 -.00000940  00000-0 -41009-4 0  9996,2 49728  53.2146 199.4171 0001510  80.3614 279.7549 15.08833553 77765,6917.9,95.438,540.81,538.72,0.0
49728.0,STARLINK-3240,PAYLOAD,2023-04-23 06:30:41,15.08831977,0.0001101,53.2142,199.1194,95.6166,264.4951,-7.9971e-05,-1.56e-05,0.0,0 STARLINK-3240,1 49728U 21115E   23113.27131259 -.00001560  00000-0 -79971-4 0  9991,2 49728  53.2142 199.1194 0001101  95.6166 264.4951 15.08831977 76664,6917.905,95.438,540.532,539.008,0.0
49728.0,STARLINK-3240,PAYLOAD,2023-04-23 14:27:37,15.08838622,0.0001195,53.2142,197.6327,96.8155,263.2973,8.0276e-05,9.9e-06,0.0,0 STARLINK-3240,1 49728U 21115E   23113.60251174  .00000990  00000-0  80276-4 0  9991,2 49728  53.2142 197.6327 0001195  96.8155 263.2973 15.08838622 76710,6917.885,95.438,540.576,538.923,0.0
49728.0,STARLINK-3240,PAYLOAD,2023-04-24 04:46:04,15.08880938,0.0001196,53.2162,194.9581,91.5582,268.5547,0.0013132,0.00020697,0.0,0 STARLINK-3240,1 49728U 21115E   23114.19866537  .00020697  00000-0  13132-2 0  9992,2 49728  53.2162 194.9581 0001196  91.5582 268.5547 15.08880938 77916,6917.755,95.435,540.448,538.793,0.0
49728.0,STARLINK-3240,PAYLOAD,2023-04-25 10:58:24,15.08816836,8.53e-05,53.2151,189.3076,95.5425,264.5664,-0.00057007,-9.343e-05,0.0,0 STARLINK-3240,1 49728U 21115E   23115.45723294 -.00009343  00000-0 -57007-3 0  9991,2 49728  53.2151 189.3076 0000853  95.5425 264.5664 15.08816836 78104,6917.951,95.439,540.406,539.226,0.0
49728.0,STARLINK-3240,PAYLOAD,2023-04-26 10:49:14,15.08819706,0.0002443,53.2155,184.8514,31.876,328.238,5.4597e-05,5.8e-06,0.0,0 STARLINK-3240,1 49728U 21115E   23116.45086065  .00000580  00000-0  54597-4 0  9994,2 49728  53.2155 184.8514 0002443  31.8760 328.2380 15.08819706 77142,6917.942,95.439,541.497,538.117,0.0
49728.0,STARLINK-3240,PAYLOAD,2023-04-26 21:56:56,15.08827525,0.0001536,53.2172,182.7622,71.7794,288.3365,0.00079221,0.00012338,0.0,0 STARLINK-3240,1 49728U 21115E   23116.91454042  .00012338  00000-0  79221-3 0  9993,2 49728  53.2172 182.7622 0001536  71.7794 288.3365 15.08827525 77215,6917.919,95.438,540.846,538.721,0.0
49728.0,STARLINK-3240,PAYLOAD,2023-04-27 12:15:23,15.0887257,0.0001671,53.2151,180.0899,46.2578,313.8552,0.0013255,0.00020889,0.0,0 STARLINK-3240,1 49728U 21115E   23117.51069043  .00020889  00000-0  13255-2 0  9997,2 49728  53.2151 180.0899 0001671  46.2578 313.8552 15.08872570 78411,6917.781,95.435,540.802,538.49,0.0
49728.0,STARLINK-3240,PAYLOAD,2023-04-28 12:06:09,15.08870351,0.000169,53.2153,175.6286,49.3333,310.7806,0.00040765,6.211e-05,0.0,0 STARLINK-3240,1 49728U 21115E   23118.50427470  .00006211  00000-0  40765-3 0  9999,2 49728  53.2153 175.6286 0001690  49.3333 310.7806 15.08870351 78566,6917.788,95.436,540.822,538.484,0.0
49728.0,STARLINK-3240,PAYLOAD,2023-04-29 11:56:56,15.08851762,0.0001695,53.2166,171.1678,57.2682,302.8474,-3.5932e-05,-8.6e-06,0.0,0 STARLINK-3240,1 49728U 21115E   23119.49787441 -.00000860  00000-0 -35932-4 0  9992,2 49728  53.2166 171.1678 0001695  57.2682 302.8474 15.08851762 78711,6917.844,95.437,540.882,538.537,0.0
49728.0,STARLINK-3240,PAYLOAD,2023-04-30 03:50:48,15.08842988,0.0001558,53.2158,168.1945,61.4185,298.6964,-0.00010855,-2.015e-05,0.0,0 STARLINK-3240,1 49728U 21115E   23120.16027830 -.00002015  00000-0 -10855-3 0  9997,2 49728  53.2158 168.1945 0001558  61.4185 298.6964 15.08842988 78815,6917.871,95.437,540.814,538.658,0.0
49728.0,STARLINK-3240,PAYLOAD,2023-04-30 08:36:58,15.08821984,0.0001169,53.2162,167.3042,6.8134,353.2874,-0.00029862,-5.035e-05,0.0,0 STARLINK-3240,1 49728U 21115E   23120.35901028 -.00005035  00000-0 -29862-3 0  9991,2 49728  53.2162 167.3042 0001169   6.8134 353.2874 15.08821984 78848,6917.935,95.439,540.609,538.992,0.0
49728.0,STARLINK-3240,PAYLOAD,2023-04-30 22:55:26,15.08826195,0.0002607,53.2168,164.6261,6.8194,353.2833,-6.2569e-05,-1.284e-05,0.0,0 STARLINK-3240,1 49728U 21115E   23120.95516854 -.00001284  00000-0 -62569-4 0  9990,2 49728  53.2168 164.6261 0002607   6.8194 353.2833 15.08826195 78935,6917.923,95.438,541.591,537.984,0.0
49728.0,STARLINK-3240,PAYLOAD,2023-05-01 10:03:07,15.0883362,0.0001513,53.216,162.5444,72.5811,287.5347,1.3951e-05,-6.6e-07,0.0,0 STARLINK-3240,1 49728U 21115E   23121.41884114 -.00000066  00000-0  13951-4 0  9996,2 49728  53.2160 162.5444 0001513  72.5811 287.5347 15.08833620 79007,6917.9,95.438,540.812,538.718,0.0
49728.0,STARLINK-3240,PAYLOAD,2023-05-02 11:29:17,15.08841683,0.0001502,53.2157,157.7868,60.2057,299.9085,0.00012871,1.761e-05,0.0,0 STARLINK-3240,1 49728U 21115E   23122.47867627  .00001761  00000-0  12871-3 0  9994,2 49728  53.2157 157.7868 0001502  60.2057 299.9085 15.08841683 79164,6917.875,95.437,540.779,538.701,0.0
49728.0,STARLINK-3240,PAYLOAD,2023-05-03 09:44:42,15.0883712,0.0001482,53.2164,153.6252,69.0121,291.1029,8.4613e-05,1.059e-05,0.0,0 STARLINK-3240,1 49728U 21115E   23123.40604249  .00001059  00000-0  84613-4 0  9991,2 49728  53.2164 153.6252 0001482  69.0121 291.1029 15.08837120 79309,6917.889,95.438,540.779,538.729,0.0
49728.0,STARLINK-3240,PAYLOAD,2023-05-03 17:41:37,15.08839909,0.0001729,53.2172,152.1349,60.2116,299.9048,6.3107e-05,7.16e-06,0.0,0 STARLINK-3240,1 49728U 21115E   23123.73724188  .00000716  00000-0  63107-4 0  9996,2 49728  53.2172 152.1349 0001729  60.2116 299.9048 15.08839909 78246,6917.881,95.438,540.942,538.55,0.0
49728.0,STARLINK-3240,PAYLOAD,2023-05-04 08:00:05,15.08843737,0.0001437,53.2161,149.4609,71.3322,288.7826,5.1919e-05,5.39e-06,0.0,0 STARLINK-3240,1 49728U 21115E   23124.33339797  .00000539  00000-0  51919-4 0  9992,2 49728  53.2161 149.4609 0001437  71.3322 288.7826 15.08843737 78334,6917.869,95.437,540.728,538.74,0.0
49728.0,STARLINK-3240,PAYLOAD,2023-05-04 19:07:47,15.08841544,0.0001426,53.2163,147.3794,70.8589,289.2558,6.2384e-05,7.05e-06,0.0,0 STARLINK-3240,1 49728U 21115E   23124.79707863  .00000705  00000-0  62384-4 0  9998,2 49728  53.2163 147.3794 0001426  70.8589 289.2558 15.08841544 79518,6917.876,95.437,540.727,538.754,0.0
49728.0,STARLINK-3240,PAYLOAD,2023-05-05 11:01:38,15.08841908,0.0001458,53.216,144.4055,72.9795,287.1357,5.4088e-05,5.73e-06,0.0,0 STARLINK-3240,1 49728U 21115E   23125.45947831  .00000573  00000-0  54088-4 0  9998,2 49728  53.2160 144.4055 0001458  72.9795 287.1357 15.08841908 78506,6917.875,95.437,540.748,538.731,0.0
49728.0,STARLINK-3240,PAYLOAD,2023-05-06 04:30:53,15.08838774,0.0001455,53.2157,141.1337,76.8034,283.312,4.0676e-05,3.59e-06,0.0,0 STARLINK-3240,1 49728U 21115E   23126.18812174  .00000359  00000-0  40676-4 0  9990,2 49728  53.2157 141.1337 0001455  76.8034 283.3120 15.08838774 79723,6917.884,95.438,540.756,538.743,0.0
49728.0,STARLINK-3240,PAYLOAD,2023-05-06 10:52:26,15.08839925,0.0001458,53.2157,139.9444,75.5021,284.6133,3.4514e-05,2.61e-06,0.0,0 STARLINK-3240,1 49728U 21115E   23126.45308141  .00000261  00000-0  34514-4 0  9990,2 49728  53.2157 139.9444 0001458  75.5021 284.6133 15.08839925 78650,6917.881,95.438,540.754,538.737,0.0
49728.0,STARLINK-3240,PAYLOAD,2023-05-07 05:57:03,15.08842532,0.0001423,53.2157,136.3758,77.8105,282.3046,6.924e-05,8.14e-06,0.0,0 STARLINK-3240,1 49728U 21115E   23127.24795829  .00000814  00000-0  69240-4 0  9999,2 49728  53.2157 136.3758 0001423  77.8105 282.3046 15.08842532 79881,6917.873,95.437,540.722,538.753,0.0
49728.0,STARLINK-3240,PAYLOAD,2023-05-07 17:04:45,15.08843211,0.000144,53.2157,134.2939,73.3197,286.7953,7.4927e-05,9.05e-06,0.0,0 STARLINK-3240,1 49728U 21115E   23127.71163727  .00000905  00000-0  74927-4 0  9996,2 49728  53.2157 134.2939 0001440  73.3197 286.7953 15.08843211 78845,6917.871,95.437,540.732,538.739,0.0
